{
  "type": "FeatureCollection",
  "features": [
    {
      "type": "Feature",
      "properties": {
        "norad_id": 28899,
        "name": "INMARSAT 4-F2 (SOUTHPAN/PRN 122)",
        "group": "gnss",
        "lat": 4.5107945905632745,
        "lon": 156.04170915634975,
        "alt_km": 35790.055791082596,
        "timestamp": "2025-12-20T18:51:31.956657+00:00",
        "meta_object_name": "INMARSAT 4-F2 (SOUTHPAN/PRN 122)",
        "meta_object_id": "2005-044A",
        "meta_epoch": "2025-12-20T11:40:38.786592",
        "meta_mean_motion": 1.00271259,
        "meta_eccentricity": 0.00024484,
        "meta_inclination": 4.8614,
        "meta_ra_of_asc_node": 43.7041,
        "meta_arg_of_pericenter": 227.2511,
        "meta_mean_anomaly": 137.0275,
        "meta_ephemeris_type": 0,
        "meta_classification_type": "U",
        "meta_norad_cat_id": 28899,
        "meta_element_set_no": 999,
        "meta_rev_at_epoch": 7373,
        "meta_bstar": 0,
        "meta_mean_motion_dot": -2.4e-06,
        "meta_mean_motion_ddot": 0,
        "tle_line1": "1 28899U 05044A   25354.48656003 -.00000240  00000+0  00000+0 0  9995",
        "tle_line2": "2 28899   4.8614  43.7041 0002448 227.2511 137.0275  1.00271259 73730"
      },
      "geometry": {
        "type": "Point",
        "coordinates": [
          156.04170915634975,
          4.5107945905632745
        ]
      }
    },
    {
      "type": "Feature",
      "properties": {
        "norad_id": 29486,
        "name": "GPS BIIRM-2 (PRN 31)",
        "group": "gnss",
        "lat": -19.639832152848726,
        "lon": -6.9336565527137894,
        "alt_km": 20436.883652281205,
        "timestamp": "2025-12-20T18:51:31.956670+00:00",
        "meta_object_name": "GPS BIIRM-2 (PRN 31)",
        "meta_object_id": "2006-042A",
        "meta_epoch": "2025-12-20T12:29:34.727712",
        "meta_mean_motion": 2.0055388,
        "meta_eccentricity": 0.01073051,
        "meta_inclination": 54.695,
        "meta_ra_of_asc_node": 158.4322,
        "meta_arg_of_pericenter": 52.1429,
        "meta_mean_anomaly": 320.0368,
        "meta_ephemeris_type": 0,
        "meta_classification_type": "U",
        "meta_norad_cat_id": 29486,
        "meta_element_set_no": 999,
        "meta_rev_at_epoch": 14081,
        "meta_bstar": 0,
        "meta_mean_motion_dot": 6.8e-07,
        "meta_mean_motion_ddot": 0,
        "tle_line1": "1 29486U 06042A   25354.52054083  .00000068  00000+0  00000+0 0  9999",
        "tle_line2": "2 29486  54.6950 158.4322 0107305  52.1429 320.0368  2.00553880140811"
      },
      "geometry": {
        "type": "Point",
        "coordinates": [
          -6.9336565527137894,
          -19.639832152848726
        ]
      }
    },
    {
      "type": "Feature",
      "properties": {
        "norad_id": 29601,
        "name": "GPS BIIRM-3 (PRN 12)",
        "group": "gnss",
        "lat": -54.16313753861036,
        "lon": 117.25620348485278,
        "alt_km": 20419.481619586517,
        "timestamp": "2025-12-20T18:51:31.956683+00:00",
        "meta_object_name": "GPS BIIRM-3 (PRN 12)",
        "meta_object_id": "2006-052A",
        "meta_epoch": "2025-12-19T22:13:29.754912",
        "meta_mean_motion": 2.00574126,
        "meta_eccentricity": 0.00879643,
        "meta_inclination": 54.9691,
        "meta_ra_of_asc_node": 221.1129,
        "meta_arg_of_pericenter": 87.52,
        "meta_mean_anomaly": 273.5849,
        "meta_ephemeris_type": 0,
        "meta_classification_type": "U",
        "meta_norad_cat_id": 29601,
        "meta_element_set_no": 999,
        "meta_rev_at_epoch": 13981,
        "meta_bstar": 0,
        "meta_mean_motion_dot": 7.6e-07,
        "meta_mean_motion_ddot": 0,
        "tle_line1": "1 29601U 06052A   25353.92603883  .00000076  00000+0  00000+0 0  9999",
        "tle_line2": "2 29601  54.9691 221.1129 0087964  87.5200 273.5849  2.00574126139815"
      },
      "geometry": {
        "type": "Point",
        "coordinates": [
          117.25620348485278,
          -54.16313753861036
        ]
      }
    },
    {
      "type": "Feature",
      "properties": {
        "norad_id": 32260,
        "name": "GPS BIIRM-4 (PRN 15)",
        "group": "gnss",
        "lat": 31.55758187977449,
        "lon": 113.95033111368532,
        "alt_km": 19866.774711830443,
        "timestamp": "2025-12-20T18:51:31.956695+00:00",
        "meta_object_name": "GPS BIIRM-4 (PRN 15)",
        "meta_object_id": "2007-047A",
        "meta_epoch": "2025-12-19T17:36:20.095488",
        "meta_mean_motion": 2.00564284,
        "meta_eccentricity": 0.01640625,
        "meta_inclination": 53.9598,
        "meta_ra_of_asc_node": 87.4696,
        "meta_arg_of_pericenter": 85.3303,
        "meta_mean_anomaly": 276.5412,
        "meta_ephemeris_type": 0,
        "meta_classification_type": "U",
        "meta_norad_cat_id": 32260,
        "meta_element_set_no": 999,
        "meta_rev_at_epoch": 13321,
        "meta_bstar": 0,
        "meta_mean_motion_dot": -3.5e-07,
        "meta_mean_motion_ddot": 0,
        "tle_line1": "1 32260U 07047A   25353.73356592 -.00000035  00000+0  00000+0 0  9996",
        "tle_line2": "2 32260  53.9598  87.4696 0164062  85.3303 276.5412  2.00564284133213"
      },
      "geometry": {
        "type": "Point",
        "coordinates": [
          113.95033111368532,
          31.55758187977449
        ]
      }
    },
    {
      "type": "Feature",
      "properties": {
        "norad_id": 32275,
        "name": "COSMOS 2433 (720)",
        "group": "gnss",
        "lat": 32.05074555952836,
        "lon": 125.47641064193964,
        "alt_km": 19130.8392141845,
        "timestamp": "2025-12-20T18:51:31.956708+00:00",
        "meta_object_name": "COSMOS 2433 (720)",
        "meta_object_id": "2007-052A",
        "meta_epoch": "2025-12-19T04:33:13.000320",
        "meta_mean_motion": 2.13104199,
        "meta_eccentricity": 0.0005237,
        "meta_inclination": 65.6796,
        "meta_ra_of_asc_node": 321.9886,
        "meta_arg_of_pericenter": 255.1824,
        "meta_mean_anomaly": 104.7517,
        "meta_ephemeris_type": 0,
        "meta_classification_type": "U",
        "meta_norad_cat_id": 32275,
        "meta_element_set_no": 999,
        "meta_rev_at_epoch": 14122,
        "meta_bstar": 0,
        "meta_mean_motion_dot": -5.9e-07,
        "meta_mean_motion_ddot": 0,
        "tle_line1": "1 32275U 07052A   25353.18973380 -.00000059  00000+0  00000+0 0  9993",
        "tle_line2": "2 32275  65.6796 321.9886 0005237 255.1824 104.7517  2.13104199141226"
      },
      "geometry": {
        "type": "Point",
        "coordinates": [
          125.47641064193964,
          32.05074555952836
        ]
      }
    },
    {
      "type": "Feature",
      "properties": {
        "norad_id": 32276,
        "name": "COSMOS 2432 (719)",
        "group": "gnss",
        "lat": 65.66828657110973,
        "lon": 49.487905385602325,
        "alt_km": 19143.26647970039,
        "timestamp": "2025-12-20T18:51:31.956720+00:00",
        "meta_object_name": "COSMOS 2432 (719)",
        "meta_object_id": "2007-052B",
        "meta_epoch": "2025-12-20T10:16:04.130976",
        "meta_mean_motion": 2.1310343,
        "meta_eccentricity": 0.00113416,
        "meta_inclination": 65.6947,
        "meta_ra_of_asc_node": 322.0715,
        "meta_arg_of_pericenter": 314.1043,
        "meta_mean_anomaly": 220.0986,
        "meta_ephemeris_type": 0,
        "meta_classification_type": "U",
        "meta_norad_cat_id": 32276,
        "meta_element_set_no": 999,
        "meta_rev_at_epoch": 14127,
        "meta_bstar": 0,
        "meta_mean_motion_dot": -5.2e-07,
        "meta_mean_motion_ddot": 0,
        "tle_line1": "1 32276U 07052B   25354.42782559 -.00000052  00000+0  00000+0 0  9991",
        "tle_line2": "2 32276  65.6947 322.0715 0011341 314.1043 220.0986  2.13103430141274"
      },
      "geometry": {
        "type": "Point",
        "coordinates": [
          49.487905385602325,
          65.66828657110973
        ]
      }
    },
    {
      "type": "Feature",
      "properties": {
        "norad_id": 32384,
        "name": "GPS BIIRM-5 (PRN 29)",
        "group": "gnss",
        "lat": 7.151244893886684,
        "lon": 96.30669793151469,
        "alt_km": 20095.522883861722,
        "timestamp": "2025-12-20T18:51:31.956732+00:00",
        "meta_object_name": "GPS BIIRM-5 (PRN 29)",
        "meta_object_id": "2007-062A",
        "meta_epoch": "2025-12-19T04:08:10.010976",
        "meta_mean_motion": 2.00577702,
        "meta_eccentricity": 0.00322663,
        "meta_inclination": 55.1765,
        "meta_ra_of_asc_node": 281.388,
        "meta_arg_of_pericenter": 162.2119,
        "meta_mean_anomaly": 283.9132,
        "meta_ephemeris_type": 0,
        "meta_classification_type": "U",
        "meta_norad_cat_id": 32384,
        "meta_element_set_no": 999,
        "meta_rev_at_epoch": 13190,
        "meta_bstar": 0,
        "meta_mean_motion_dot": -3.8e-07,
        "meta_mean_motion_ddot": 0,
        "tle_line1": "1 32384U 07062A   25353.17233809 -.00000038  00000+0  00000+0 0  9996",
        "tle_line2": "2 32384  55.1765 281.3880 0032266 162.2119 283.9132  2.00577702131904"
      },
      "geometry": {
        "type": "Point",
        "coordinates": [
          96.30669793151469,
          7.151244893886684
        ]
      }
    }
  ]
}